{
    "links": {
        "self": "http://www.neowsapp.com/rest/v1/neo/3092393?api_key=iIulBulltgU6a56xZRHN4H3l9WmuAYTsLGpBGhQ2"
    },
    "id": "3092393",
    "neo_reference_id": "3092393",
    "name": "(2001 UZ4)",
    "designation": "2001 UZ4",
    "nasa_jpl_url": "http://ssd.jpl.nasa.gov/sbdb.cgi?sstr=3092393",
    "absolute_magnitude_h": 20.6,
    "estimated_diameter": {
        "kilometers": {
            "estimated_diameter_min": 0.2016299194,
            "estimated_diameter_max": 0.4508582062
        },
        "meters": {
            "estimated_diameter_min": 201.6299194428,
            "estimated_diameter_max": 450.8582061718
        },
        "miles": {
            "estimated_diameter_min": 0.1252869847,
            "estimated_diameter_max": 0.2801502144
        },
        "feet": {
            "estimated_diameter_min": 661.5155049046,
            "estimated_diameter_max": 1479.1936371367
        }
    },
    "is_potentially_hazardous_asteroid": false,
    "close_approach_data": [
        {
            "close_approach_date": "2001-10-14",
            "close_approach_date_full": "2001-Oct-14 14:44",
            "epoch_date_close_approach": 1003070640000,
            "relative_velocity": {
                "kilometers_per_second": "13.192747839",
                "kilometers_per_hour": "47493.8922202326",
                "miles_per_hour": "29510.8576409551"
            },
            "miss_distance": {
                "astronomical": "0.3105499839",
                "lunar": "120.8039437371",
                "kilometers": "46457616.119974293",
                "miles": "28867424.0567115234"
            },
            "orbiting_body": "Earth"
        }
    ],
    "orbital_data": {
        "orbit_id": "8",
        "orbit_determination_date": "2017-04-06 09:15:58",
        "first_observation_date": "2001-10-08",
        "last_observation_date": "2001-10-21",
        "data_arc_in_days": 13,
        "observations_used": 23,
        "orbit_uncertainty": "8",
        "minimum_orbit_intersection": ".303699",
        "jupiter_tisserand_invariant": "2.930",
        "epoch_osculation": "2452198.5",
        "eccentricity": ".5532887399808131",
        "semi_major_axis": "2.899564989903835",
        "inclination": "24.03028713382053",
        "ascending_node_longitude": "17.87886528224746",
        "orbital_period": "1803.423389102415",
        "perihelion_distance": "1.295268330147463",
        "perihelion_argument": "11.54589223288685",
        "aphelion_distance": "4.503861649660206",
        "perihelion_time": "2452209.993696521471",
        "mean_anomaly": "357.70562432941",
        "mean_motion": ".1996203454914579",
        "equinox": "J2000",
        "orbit_class": {
            "orbit_class_type": "AMO",
            "orbit_class_description": "Near-Earth asteroid orbits similar to that of 1221 Amor",
            "orbit_class_range": "1.017 AU < q (perihelion) < 1.3 AU"
        }
    },
    "is_sentry_object": false
}